{"type": "FeatureCollection", "features": [ {"type": "Feature", "properties": {"norad_id": 65077, "name": "CREW DRAGON 11", "group": "stations", "lat": -6.750092323030406, "lon": 9.548505182791606, "alt_km": 417.9933632193861, "timestamp": "2025-12-04T07:39:35.018135+00:00", "meta": {"OBJECT_NAME": "CREW DRAGON 11", "OBJECT_ID": "2025-166A", "EPOCH": "2025-12-03T21:33:39.277728", "MEAN_MOTION": 15.4928465, "ECCENTRICITY": 0.00035922, "INCLINATION": 51.6303, "RA_OF_ASC_NODE": 186.2514, "ARG_OF_PERICENTER": 201.3576, "MEAN_ANOMALY": 158.7263, "EPHEMERIS_TYPE": 0, "CLASSIFICATION_TYPE": "U", "NORAD_CAT_ID": 65077, "ELEMENT_SET_NO": 999, "REV_AT_EPOCH": 214, "BSTAR": 0.00025253496, "MEAN_MOTION_DOT": 0.00013627, "MEAN_MOTION_DDOT": 0}, "tle": {"line1": "1 65077U 25166A   25337.89837127  .00013627  00000+0  25253-3 0  9998", "line2": "2 65077  51.6303 186.2514 0003592 201.3576 158.7263 15.49284650  2148"}}, "geometry": {"type": "Point", "coordinates": [9.548505182791606, -6.750092323030406]}}, {"type": "Feature", "properties": {"norad_id": 65304, "name": "DRAGON CRS-33", "group": "stations", "lat": -6.750092776966657, "lon": 9.548505548580037, "alt_km": 417.9933632660759, "timestamp": "2025-12-04T07:39:35.018144+00:00", "meta": {"OBJECT_NAME": "DRAGON CRS-33", "OBJECT_ID": "2025-186A", "EPOCH": "2025-12-03T21:33:39.277728", "MEAN_MOTION": 15.4928465, "ECCENTRICITY": 0.00035922, "INCLINATION": 51.6303, "RA_OF_ASC_NODE": 186.2514, "ARG_OF_PERICENTER": 201.3576, "MEAN_ANOMALY": 158.7263, "EPHEMERIS_TYPE": 0, "CLASSIFICATION_TYPE": "U", "NORAD_CAT_ID": 65304, "ELEMENT_SET_NO": 999, "REV_AT_EPOCH": 11, "BSTAR": 0.00025253496, "MEAN_MOTION_DOT": 0.00013627, "MEAN_MOTION_DDOT": 0}, "tle": {"line1": "1 65304U 25186A   25337.89837127  .00013627  00000+0  25253-3 0  9993", "line2": "2 65304  51.6303 186.2514 0003592 201.3576 158.7263 15.49284650   116"}}, "geometry": {"type": "Point", "coordinates": [9.548505548580037, -6.750092776966657]}}, {"type": "Feature", "properties": {"norad_id": 65586, "name": "PROGRESS-MS 32", "group": "stations", "lat": -6.750093230901889, "lon": 9.548505914367693, "alt_km": 417.99336331277027, "timestamp": "2025-12-04T07:39:35.018153+00:00", "meta": {"OBJECT_NAME": "PROGRESS-MS 32", "OBJECT_ID": "2025-204A", "EPOCH": "2025-12-03T21:33:39.277728", "MEAN_MOTION": 15.4928465, "ECCENTRICITY": 0.00035922, "INCLINATION": 51.6303, "RA_OF_ASC_NODE": 186.2514, "ARG_OF_PERICENTER": 201.3576, "MEAN_ANOMALY": 158.7263, "EPHEMERIS_TYPE": 0, "CLASSIFICATION_TYPE": "U", "NORAD_CAT_ID": 65586, "ELEMENT_SET_NO": 999, "REV_AT_EPOCH": 27, "BSTAR": 0.00025253496, "MEAN_MOTION_DOT": 0.00013627, "MEAN_MOTION_DDOT": 0}, "tle": {"line1": "1 65586U 25204A   25337.89837127  .00013627  00000+0  25253-3 0  9996", "line2": "2 65586  51.6303 186.2514 0003592 201.3576 158.7263 15.49284650   275"}}, "geometry": {"type": "Point", "coordinates": [9.548505914367693, -6.750093230901889]}}, {"type": "Feature", "properties": {"norad_id": 65616, "name": "CYGNUS NG-23", "group": "stations", "lat": -6.75009368483683, "lon": 9.548506280155113, "alt_km": 417.99336335945645, "timestamp": "2025-12-04T07:39:35.018162+00:00", "meta": {"OBJECT_NAME": "CYGNUS NG-23", "OBJECT_ID": "2025-208A", "EPOCH": "2025-12-03T21:33:39.277728", "MEAN_MOTION": 15.4928465, "ECCENTRICITY": 0.00035922, "INCLINATION": 51.6303, "RA_OF_ASC_NODE": 186.2514, "ARG_OF_PERICENTER": 201.3576, "MEAN_ANOMALY": 158.7263, "EPHEMERIS_TYPE": 0, "CLASSIFICATION_TYPE": "U", "NORAD_CAT_ID": 65616, "ELEMENT_SET_NO": 999, "REV_AT_EPOCH": 22, "BSTAR": 0.00025253496, "MEAN_MOTION_DOT": 0.00013627, "MEAN_MOTION_DDOT": 0}, "tle": {"line1": "1 65616U 25208A   25337.89837127  .00013627  00000+0  25253-3 0  9994", "line2": "2 65616  51.6303 186.2514 0003592 201.3576 158.7263 15.49284650   224"}}, "geometry": {"type": "Point", "coordinates": [9.548506280155113, -6.75009368483683]}}, {"type": "Feature", "properties": {"norad_id": 65729, "name": "DRAGONFLY", "group": "stations", "lat": -49.406809169917565, "lon": 66.4131967521652, "alt_km": 363.83452659886825, "timestamp": "2025-12-04T07:39:35.018171+00:00", "meta": {"OBJECT_NAME": "DRAGONFLY", "OBJECT_ID": "1998-067XH", "EPOCH": "2025-12-03T19:52:13.613376", "MEAN_MOTION": 15.68394911, "ECCENTRICITY": 0.00065361, "INCLINATION": 51.6246, "RA_OF_ASC_NODE": 181.2773, "ARG_OF_PERICENTER": 221.3225, "MEAN_ANOMALY": 138.7278, "EPHEMERIS_TYPE": 0, "CLASSIFICATION_TYPE": "U", "NORAD_CAT_ID": 65729, "ELEMENT_SET_NO": 999, "REV_AT_EPOCH": 1176, "BSTAR": 0.0014908733, "MEAN_MOTION_DOT": 0.00174585, "MEAN_MOTION_DDOT": 0}, "tle": {"line1": "1 65729U 98067XH  25337.82793534  .00174585  00000+0  14909-2 0  9994", "line2": "2 65729  51.6246 181.2773 0006536 221.3225 138.7278 15.68394911 11769"}}, "geometry": {"type": "Point", "coordinates": [66.4131967521652, -49.406809169917565]}}, {"type": "Feature", "properties": {"norad_id": 65730, "name": "1998-067XJ", "group": "stations", "lat": 15.199136464105596, "lon": -20.359076764069663, "alt_km": 156.2909747538697, "timestamp": "2025-12-04T07:39:35.018181+00:00", "meta": {"OBJECT_NAME": "1998-067XJ", "OBJECT_ID": "1998-067XJ", "EPOCH": "2025-12-02T19:46:01.269984", "MEAN_MOTION": 16.23931094, "ECCENTRICITY": 0.00101147, "INCLINATION": 51.6061, "RA_OF_ASC_NODE": 180.4655, "ARG_OF_PERICENTER": 256.3912, "MEAN_ANOMALY": 103.5981, "EPHEMERIS_TYPE": 0, "CLASSIFICATION_TYPE": "U", "NORAD_CAT_ID": 65730, "ELEMENT_SET_NO": 999, "REV_AT_EPOCH": 1168, "BSTAR": 0.002285911, "MEAN_MOTION_DOT": 0.06330363, "MEAN_MOTION_DDOT": 1.1931217e-05}, "tle": {"line1": "1 65730U 98067XJ  25336.82362581  .06330363  11931-4  22859-2 0  9996", "line2": "2 65730  51.6061 180.4655 0010114 256.3912 103.5981 16.23931094 11687"}}, "geometry": {"type": "Point", "coordinates": [-20.359076764069663, 15.199136464105596]}}, {"type": "Feature", "properties": {"norad_id": 65731, "name": "1998-067XK", "group": "stations", "lat": 51.47735707531113, "lon": -95.64862370330631, "alt_km": 371.13480145753874, "timestamp": "2025-12-04T07:39:35.018191+00:00", "meta": {"OBJECT_NAME": "1998-067XK", "OBJECT_ID": "1998-067XK", "EPOCH": "2025-12-03T20:33:14.862528", "MEAN_MOTION": 15.63596152, "ECCENTRICITY": 0.00059045, "INCLINATION": 51.628, "RA_OF_ASC_NODE": 182.229, "ARG_OF_PERICENTER": 193.4783, "MEAN_ANOMALY": 166.6055, "EPHEMERIS_TYPE": 0, "CLASSIFICATION_TYPE": "U", "NORAD_CAT_ID": 65731, "ELEMENT_SET_NO": 999, "REV_AT_EPOCH": 1175, "BSTAR": 0.0013142835, "MEAN_MOTION_DOT": 0.00126041, "MEAN_MOTION_DDOT": 0}, "tle": {"line1": "1 65731U 98067XK  25337.85642202  .00126041  00000+0  13143-2 0  9998", "line2": "2 65731  51.6280 182.2290 0005904 193.4783 166.6055 15.63596152 11759"}}, "geometry": {"type": "Point", "coordinates": [-95.64862370330631, 51.47735707531113]}}, {"type": "Feature", "properties": {"norad_id": 65732, "name": "RSP-03", "group": "stations", "lat": -15.002448216295335, "lon": 167.09003407576006, "alt_km": 376.43444056027874, "timestamp": "2025-12-04T07:39:35.018201+00:00", "meta": {"OBJECT_NAME": "RSP-03", "OBJECT_ID": "1998-067XL", "EPOCH": "2025-12-03T19:29:20.077152", "MEAN_MOTION": 15.65846049, "ECCENTRICITY": 0.00066871, "INCLINATION": 51.6261, "RA_OF_ASC_NODE": 181.9259, "ARG_OF_PERICENTER": 196.3432, "MEAN_ANOMALY": 163.7349, "EPHEMERIS_TYPE": 0, "CLASSIFICATION_TYPE": "U", "NORAD_CAT_ID": 65732, "ELEMENT_SET_NO": 999, "REV_AT_EPOCH": 1176, "BSTAR": 0.0012908506, "MEAN_MOTION_DOT": 0.00135578, "MEAN_MOTION_DDOT": 0}, "tle": {"line1": "1 65732U 98067XL  25337.81203793  .00135578  00000+0  12909-2 0  9997", "line2": "2 65732  51.6261 181.9259 0006687 196.3432 163.7349 15.65846049 11762"}}, "geometry": {"type": "Point", "coordinates": [167.09003407576006, -15.002448216295335]}}, {"type": "Feature", "properties": {"norad_id": 65733, "name": "GHS-01", "group": "stations", "lat": 51.427721198431655, "lon": -85.15047332154583, "alt_km": 352.7952631175276, "timestamp": "2025-12-04T07:39:35.018210+00:00", "meta": {"OBJECT_NAME": "GHS-01", "OBJECT_ID": "1998-067XM", "EPOCH": "2025-12-03T22:05:54.332736", "MEAN_MOTION": 15.70494881, "ECCENTRICITY": 0.0007009, "INCLINATION": 51.6271, "RA_OF_ASC_NODE": 180.4028, "ARG_OF_PERICENTER": 220.9221, "MEAN_ANOMALY": 139.1251, "EPHEMERIS_TYPE": 0, "CLASSIFICATION_TYPE": "U", "NORAD_CAT_ID": 65733, "ELEMENT_SET_NO": 999, "REV_AT_EPOCH": 1179, "BSTAR": 0.001848703, "MEAN_MOTION_DOT": 0.00238165, "MEAN_MOTION_DDOT": 0}, "tle": {"line1": "1 65733U 98067XM  25337.92076774  .00238165  00000+0  18487-2 0  9990", "line2": "2 65733  51.6271 180.4028 0007009 220.9221 139.1251 15.70494881 11792"}}, "geometry": {"type": "Point", "coordinates": [-85.15047332154583, 51.427721198431655]}}, {"type": "Feature", "properties": {"norad_id": 65941, "name": "YOTSUBA-KULOVER", "group": "stations", "lat": 22.681859022550448, "lon": -158.40762225309666, "alt_km": 392.082118032723, "timestamp": "2025-12-04T07:39:35.018220+00:00", "meta": {"OBJECT_NAME": "YOTSUBA-KULOVER", "OBJECT_ID": "1998-067XN", "EPOCH": "2025-12-03T13:03:34.819200", "MEAN_MOTION": 15.57842234, "ECCENTRICITY": 0.00020894, "INCLINATION": 51.628, "RA_OF_ASC_NODE": 186.1413, "ARG_OF_PERICENTER": 172.2888, "MEAN_ANOMALY": 187.8136, "EPHEMERIS_TYPE": 0, "CLASSIFICATION_TYPE": "U", "NORAD_CAT_ID": 65941, "ELEMENT_SET_NO": 999, "REV_AT_EPOCH": 842, "BSTAR": 0.001074186, "MEAN_MOTION_DOT": 0.0008193, "MEAN_MOTION_DDOT": 0}, "tle": {"line1": "1 65941U 98067XN  25337.54415300  .00081930  00000+0  10742-2 0  9993", "line2": "2 65941  51.6280 186.1413 0002089 172.2888 187.8136 15.57842234  8427"}}, "geometry": {"type": "Point", "coordinates": [-158.40762225309666, 22.681859022550448]}}]}